{
  "type": "FeatureCollection",
  "features": [
    {
      "type": "Feature",
      "properties": {
        "norad_id": 35616,
        "name": "IRIDIUM 33 DEB",
        "group": "iridium-33-debris",
        "lat": 15.782837025512942,
        "lon": 164.5430549173511,
        "alt_km": 617.336674206771,
        "timestamp": "2025-12-13T03:42:11.657783+00:00",
        "meta_object_name": "IRIDIUM 33 DEB",
        "meta_object_id": "1997-051QN",
        "meta_epoch": "2025-12-11T10:26:51.153792",
        "meta_mean_motion": 14.81765908,
        "meta_eccentricity": 0.00099847,
        "meta_inclination": 86.3548,
        "meta_ra_of_asc_node": 346.3598,
        "meta_arg_of_pericenter": 167.762,
        "meta_mean_anomaly": 192.3847,
        "meta_ephemeris_type": 0,
        "meta_classification_type": "U",
        "meta_norad_cat_id": 35616,
        "meta_element_set_no": 999,
        "meta_rev_at_epoch": 87555,
        "meta_bstar": 0.0032912714,
        "meta_mean_motion_dot": 0.00026074,
        "meta_mean_motion_ddot": 0,
        "tle_line1": "1 35616U 97051QN  25345.43531428  .00026074  00000+0  32913-2 0  9990",
        "tle_line2": "2 35616  86.3548 346.3598 0009984 167.7620 192.3847 14.81765908875557"
      },
      "geometry": {
        "type": "Point",
        "coordinates": [
          164.5430549173511,
          15.782837025512942
        ]
      }
    },
    {
      "type": "Feature",
      "properties": {
        "norad_id": 35618,
        "name": "IRIDIUM 33 DEB",
        "group": "iridium-33-debris",
        "lat": -65.60819937561939,
        "lon": -178.56517189595664,
        "alt_km": 740.3294678833881,
        "timestamp": "2025-12-13T03:42:11.657794+00:00",
        "meta_object_name": "IRIDIUM 33 DEB",
        "meta_object_id": "1997-051QQ",
        "meta_epoch": "2025-12-05T07:42:53.148672",
        "meta_mean_motion": 14.52258119,
        "meta_eccentricity": 0.00302089,
        "meta_inclination": 86.3407,
        "meta_ra_of_asc_node": 356.7447,
        "meta_arg_of_pericenter": 46.3254,
        "meta_mean_anomaly": 314.0448,
        "meta_ephemeris_type": 0,
        "meta_classification_type": "U",
        "meta_norad_cat_id": 35618,
        "meta_element_set_no": 999,
        "meta_rev_at_epoch": 65286,
        "meta_bstar": 0.00091388234,
        "meta_mean_motion_dot": 3.753e-05,
        "meta_mean_motion_ddot": 0,
        "tle_line1": "1 35618U 97051QQ  25339.32144848  .00003753  00000+0  91388-3 0  9990",
        "tle_line2": "2 35618  86.3407 356.7447 0030208  46.3254 314.0448 14.52258119652865"
      },
      "geometry": {
        "type": "Point",
        "coordinates": [
          -178.56517189595664,
          -65.60819937561939
        ]
      }
    },
    {
      "type": "Feature",
      "properties": {
        "norad_id": 35620,
        "name": "IRIDIUM 33 DEB",
        "group": "iridium-33-debris",
        "lat": -26.0437845598325,
        "lon": 39.04743780562245,
        "alt_km": 707.1208444429494,
        "timestamp": "2025-12-13T03:42:11.657804+00:00",
        "meta_object_name": "IRIDIUM 33 DEB",
        "meta_object_id": "1997-051QS",
        "meta_epoch": "2025-12-12T01:41:06.603648",
        "meta_mean_motion": 14.38023351,
        "meta_eccentricity": 0.01413324,
        "meta_inclination": 86.3886,
        "meta_ra_of_asc_node": 217.736,
        "meta_arg_of_pericenter": 261.1948,
        "meta_mean_anomaly": 97.3224,
        "meta_ephemeris_type": 0,
        "meta_classification_type": "U",
        "meta_norad_cat_id": 35620,
        "meta_element_set_no": 999,
        "meta_rev_at_epoch": 59956,
        "meta_bstar": 0.0071195038,
        "meta_mean_motion_dot": 0.00024261,
        "meta_mean_motion_ddot": 0,
        "tle_line1": "1 35620U 97051QS  25346.07021532  .00024261  00000+0  71195-2 0  9997",
        "tle_line2": "2 35620  86.3886 217.7360 0141332 261.1948  97.3224 14.38023351599569"
      },
      "geometry": {
        "type": "Point",
        "coordinates": [
          39.04743780562245,
          -26.0437845598325
        ]
      }
    },
    {
      "type": "Feature",
      "properties": {
        "norad_id": 35622,
        "name": "IRIDIUM 33 DEB",
        "group": "iridium-33-debris",
        "lat": 31.95518289719118,
        "lon": -94.22639472429583,
        "alt_km": 547.6164358021488,
        "timestamp": "2025-12-13T03:42:11.657815+00:00",
        "meta_object_name": "IRIDIUM 33 DEB",
        "meta_object_id": "1997-051QU",
        "meta_epoch": "2025-12-12T05:53:29.345856",
        "meta_mean_motion": 15.04595376,
        "meta_eccentricity": 0.0006602,
        "meta_inclination": 86.201,
        "meta_ra_of_asc_node": 263.8459,
        "meta_arg_of_pericenter": 344.016,
        "meta_mean_anomaly": 168.38,
        "meta_ephemeris_type": 0,
        "meta_classification_type": "U",
        "meta_norad_cat_id": 35622,
        "meta_element_set_no": 999,
        "meta_rev_at_epoch": 87352,
        "meta_bstar": 0.007348182,
        "meta_mean_motion_dot": 0.00104555,
        "meta_mean_motion_ddot": 0,
        "tle_line1": "1 35622U 97051QU  25346.24547854  .00104555  00000+0  73482-2 0  9994",
        "tle_line2": "2 35622  86.2010 263.8459 0006602 344.0160 168.3800 15.04595376873522"
      },
      "geometry": {
        "type": "Point",
        "coordinates": [
          -94.22639472429583,
          31.95518289719118
        ]
      }
    },
    {
      "type": "Feature",
      "properties": {
        "norad_id": 35628,
        "name": "IRIDIUM 33 DEB",
        "group": "iridium-33-debris",
        "lat": 13.992176074571372,
        "lon": -172.01857303437214,
        "alt_km": 677.2205894751933,
        "timestamp": "2025-12-13T03:42:11.657825+00:00",
        "meta_object_name": "IRIDIUM 33 DEB",
        "meta_object_id": "1997-051RA",
        "meta_epoch": "2025-12-12T07:18:45.972000",
        "meta_mean_motion": 14.67573898,
        "meta_eccentricity": 0.00104647,
        "meta_inclination": 86.358,
        "meta_ra_of_asc_node": 9.2695,
        "meta_arg_of_pericenter": 344.3823,
        "meta_mean_anomaly": 15.7067,
        "meta_ephemeris_type": 0,
        "meta_classification_type": "U",
        "meta_norad_cat_id": 35628,
        "meta_element_set_no": 999,
        "meta_rev_at_epoch": 86440,
        "meta_bstar": 0.0020648512,
        "meta_mean_motion_dot": 0.00011757,
        "meta_mean_motion_ddot": 0,
        "tle_line1": "1 35628U 97051RA  25346.30469875  .00011757  00000+0  20649-2 0  9991",
        "tle_line2": "2 35628  86.3580   9.2695 0010464 344.3823  15.7067 14.67573898864405"
      },
      "geometry": {
        "type": "Point",
        "coordinates": [
          -172.01857303437214,
          13.992176074571372
        ]
      }
    },
    {
      "type": "Feature",
      "properties": {
        "norad_id": 35631,
        "name": "IRIDIUM 33 DEB",
        "group": "iridium-33-debris",
        "lat": 31.370166301068274,
        "lon": 23.01745333478958,
        "alt_km": 731.477347868813,
        "timestamp": "2025-12-13T03:42:11.657835+00:00",
        "meta_object_name": "IRIDIUM 33 DEB",
        "meta_object_id": "1997-051RD",
        "meta_epoch": "2025-12-11T08:29:06.309600",
        "meta_mean_motion": 14.47305653,
        "meta_eccentricity": 0.001885,
        "meta_inclination": 86.3673,
        "meta_ra_of_asc_node": 21.5727,
        "meta_arg_of_pericenter": 122.0874,
        "meta_mean_anomaly": 253.1598,
        "meta_ephemeris_type": 0,
        "meta_classification_type": "U",
        "meta_norad_cat_id": 35631,
        "meta_element_set_no": 999,
        "meta_rev_at_epoch": 87177,
        "meta_bstar": 0.00056547362,
        "meta_mean_motion_dot": 2.093e-05,
        "meta_mean_motion_ddot": 0,
        "tle_line1": "1 35631U 97051RD  25345.35354525  .00002093  00000+0  56547-3 0  9994",
        "tle_line2": "2 35631  86.3673  21.5727 0018850 122.0874 253.1598 14.47305653871774"
      },
      "geometry": {
        "type": "Point",
        "coordinates": [
          23.01745333478958,
          31.370166301068274
        ]
      }
    },
    {
      "type": "Feature",
      "properties": {
        "norad_id": 35680,
        "name": "IRIDIUM 33 DEB",
        "group": "iridium-33-debris",
        "lat": -35.47849700803331,
        "lon": 18.55443316501632,
        "alt_km": 754.2590655395852,
        "timestamp": "2025-12-13T03:42:11.657846+00:00",
        "meta_object_name": "IRIDIUM 33 DEB",
        "meta_object_id": "1997-051RJ",
        "meta_epoch": "2025-12-10T20:56:41.216928",
        "meta_mean_motion": 14.2086329,
        "meta_eccentricity": 0.015045,
        "meta_inclination": 86.1029,
        "meta_ra_of_asc_node": 22.3487,
        "meta_arg_of_pericenter": 284.4866,
        "meta_mean_anomaly": 255.1489,
        "meta_ephemeris_type": 0,
        "meta_classification_type": "U",
        "meta_norad_cat_id": 35680,
        "meta_element_set_no": 999,
        "meta_rev_at_epoch": 60674,
        "meta_bstar": 0.0056946,
        "meta_mean_motion_dot": 0.00013831,
        "meta_mean_motion_ddot": 0,
        "tle_line1": "1 35680U 97051RJ  25344.87269927  .00013831  00000+0  56946-2 0  9999",
        "tle_line2": "2 35680  86.1029  22.3487 0150450 284.4866 255.1489 14.20863290606741"
      },
      "geometry": {
        "type": "Point",
        "coordinates": [
          18.55443316501632,
          -35.47849700803331
        ]
      }
    }
  ]
}